[{"OBJECT_NAME":"STARLINK-4505","OBJECT_ID":"2022-101AF","EPOCH":"2026-03-09T23:35:19.635360","MEAN_MOTION":15.08841872,"ECCENTRICITY":0.00013518,"INCLINATION":53.2169,"RA_OF_ASC_NODE":62.8018,"ARG_OF_PERICENTER":88.6158,"MEAN_ANOMALY":271.4989,"EPHEMERIS_TYPE":0,"CLASSIFICATION_TYPE":"U","NORAD_CAT_ID":53556,"ELEMENT_SET_NO":999,"REV_AT_EPOCH":19635,"BSTAR":2.8362219e-5,"MEAN_MOTION_DOT":1.64e-6,"MEAN_MOTION_DDOT":0},{"OBJECT_NAME":"DISKSAT B","OBJECT_ID":"2025-305B","EPOCH":"2026-03-09T19:33:34.074144","MEAN_MOTION":15.07484556,"ECCENTRICITY":0.00037827,"INCLINATION":45.0018,"RA_OF_ASC_NODE":250.2098,"ARG_OF_PERICENTER":311.4052,"MEAN_ANOMALY":48.6498,"EPHEMERIS_TYPE":0,"CLASSIFICATION_TYPE":"U","NORAD_CAT_ID":67220,"ELEMENT_SET_NO":999,"REV_AT_EPOCH":1231,"BSTAR":0.00082400752,"MEAN_MOTION_DOT":0.00012481,"MEAN_MOTION_DDOT":0}]
